{
  "norad_id": 57670,
  "name": "STARLINK-30322",
  "history": [
    {
      "epoch": "2026-03-28T18:36:20.496672Z",
      "apogee_km": 475.9276125941651,
      "perigee_km": 474.5359675276559,
      "latitude_deg": 1.697638280485633e-05,
      "longitude_deg": 13.139765289174056,
      "height_km": 476.08379401472354,
      "semi_major_axis_km": 6853.36879006091,
      "eccentricity": 0.00010153,
      "inclination_deg": 53.1598,
      "raan_deg": 118.416,
      "arg_perigee_deg": 86.177,
      "mean_anomaly_deg": 273.9347,
      "mean_motion_rev_day": 15.301944
    },
    {
      "epoch": "2026-03-29T02:26:35.901024Z",
      "apogee_km": 475.9123866269165,
      "perigee_km": 474.52937900616325,
      "latitude_deg": 2.4761450445452414e-05,
      "longitude_deg": -106.26389304695843,
      "height_km": 475.9732359623623,
      "semi_major_axis_km": 6853.357882816539,
      "eccentricity": 0.0001009,
      "inclination_deg": 53.1598,
      "raan_deg": 116.8984,
      "arg_perigee_deg": 77.8042,
      "mean_anomaly_deg": 282.3072,
      "mean_motion_rev_day": 15.30198053
    },
    {
      "epoch": "2026-03-30T01:57:24.628320Z",
      "apogee_km": 475.99071466488203,
      "perigee_km": 474.489825042785,
      "latitude_deg": -3.0653849299861564e-05,
      "longitude_deg": -104.48233076678558,
      "height_km": 475.98167190030705,
      "semi_major_axis_km": 6853.377269853833,
      "eccentricity": 0.0001095,
      "inclination_deg": 53.1602,
      "raan_deg": 112.3487,
      "arg_perigee_deg": 77.9264,
      "mean_anomaly_deg": 282.1859,
      "mean_motion_rev_day": 15.3019156
    },
    {
      "epoch": "2026-03-30T05:05:31.225344Z",
      "apogee_km": 476.0204280870403,
      "perigee_km": 474.4734822606788,
      "latitude_deg": 8.997564440414908e-06,
      "longitude_deg": -152.24514536004494,
      "height_km": 476.00560839700984,
      "semi_major_axis_km": 6853.383955173859,
      "eccentricity": 0.00011286,
      "inclination_deg": 53.1606,
      "raan_deg": 111.7421,
      "arg_perigee_deg": 79.5944,
      "mean_anomaly_deg": 280.5184,
      "mean_motion_rev_day": 15.30189321
    },
    {
      "epoch": "2026-03-30T11:21:43.958880Z",
      "apogee_km": 475.9930334614801,
      "perigee_km": 474.48803175531884,
      "latitude_deg": 3.1334975214525706e-05,
      "longitude_deg": 112.22960706632875,
      "height_km": 475.9315409785625,
      "semi_major_axis_km": 6853.3775326084,
      "eccentricity": 0.0001098,
      "inclination_deg": 53.1597,
      "raan_deg": 110.5274,
      "arg_perigee_deg": 74.0076,
      "mean_anomaly_deg": 286.1046,
      "mean_motion_rev_day": 15.30191472
    },
    {
      "epoch": "2026-03-31T10:52:31.656288Z",
      "apogee_km": 476.05295366596056,
      "perigee_km": 474.4178760752211,
      "latitude_deg": -4.137895170189632e-06,
      "longitude_deg": 114.01528784716282,
      "height_km": 475.95466872655896,
      "semi_major_axis_km": 6853.372414870591,
      "eccentricity": 0.00011929,
      "inclination_deg": 53.16,
      "raan_deg": 105.9775,
      "arg_perigee_deg": 77.355,
      "mean_anomaly_deg": 282.7584,
      "mean_motion_rev_day": 15.30193186
    },
    {
      "epoch": "2026-04-01T10:23:19.574016Z",
      "apogee_km": 476.10810748798485,
      "perigee_km": 474.3646093056086,
      "latitude_deg": -3.5198737220926244e-05,
      "longitude_deg": 115.79845145871836,
      "height_km": 475.95867606164245,
      "semi_major_axis_km": 6853.373358396796,
      "eccentricity": 0.0001272,
      "inclination_deg": 53.16,
      "raan_deg": 101.426,
      "arg_perigee_deg": 78.366,
      "mean_anomaly_deg": 281.7483,
      "mean_motion_rev_day": 15.3019287
    },
    {
      "epoch": "2026-04-02T06:46:01.129728Z",
      "apogee_km": 476.1571362949089,
      "perigee_km": 474.31864994608077,
      "latitude_deg": 3.351563230503012e-05,
      "longitude_deg": 165.34385140658011,
      "height_km": 475.99569916128553,
      "semi_major_axis_km": 6853.374893120495,
      "eccentricity": 0.00013413,
      "inclination_deg": 53.16,
      "raan_deg": 97.4814,
      "arg_perigee_deg": 81.228,
      "mean_anomaly_deg": 278.8873,
      "mean_motion_rev_day": 15.30192356
    },
    {
      "epoch": "2026-04-03T17:15:12.074400Z",
      "apogee_km": 476.1055363982823,
      "perigee_km": 474.419600104492,
      "latitude_deg": -4.8568333689004854e-05,
      "longitude_deg": -0.04231713593395447,
      "height_km": 476.18704659260555,
      "semi_major_axis_km": 6853.399568251387,
      "eccentricity": 0.000123,
      "inclination_deg": 53.1603,
      "raan_deg": 90.8072,
      "arg_perigee_deg": 91.7889,
      "mean_anomaly_deg": 268.3252,
      "mean_motion_rev_day": 15.30184092
    },
    {
      "epoch": "2026-04-04T05:47:38.061600Z",
      "apogee_km": 476.2194935946354,
      "perigee_km": 474.33014502428796,
      "latitude_deg": -6.463816811003266e-05,
      "longitude_deg": 168.9069684709683,
      "height_km": 476.27314100476053,
      "semi_major_axis_km": 6853.411819309461,
      "eccentricity": 0.00013784,
      "inclination_deg": 53.1604,
      "raan_deg": 88.3798,
      "arg_perigee_deg": 96.0974,
      "mean_anomaly_deg": 264.0183,
      "mean_motion_rev_day": 15.30179989
    },
    {
      "epoch": "2026-04-05T08:26:28.527648Z",
      "apogee_km": 476.0350839929488,
      "perigee_km": 474.2148576135023,
      "latitude_deg": 1.7763929976946982e-05,
      "longitude_deg": 122.94388546520865,
      "height_km": 476.29998130549944,
      "semi_major_axis_km": 6853.261970803225,
      "eccentricity": 0.0001328,
      "inclination_deg": 53.1606,
      "raan_deg": 83.2213,
      "arg_perigee_deg": 107.7103,
      "mean_anomaly_deg": 252.4043,
      "mean_motion_rev_day": 15.30230176
    },
    {
      "epoch": "2026-04-06T04:49:13.145376Z",
      "apogee_km": 476.3412469285595,
      "perigee_km": 474.1769444415422,
      "latitude_deg": 1.7505013076112295e-05,
      "longitude_deg": 172.47793813780515,
      "height_km": 476.3146785562324,
      "semi_major_axis_km": 6853.396095685051,
      "eccentricity": 0.0001579,
      "inclination_deg": 53.1615,
      "raan_deg": 79.2782,
      "arg_perigee_deg": 98.3829,
      "mean_anomaly_deg": 261.7351,
      "mean_motion_rev_day": 15.30185255
    },
    {
      "epoch": "2026-04-07T07:28:08.131008Z",
      "apogee_km": 476.5423044951467,
      "perigee_km": 473.95706996898934,
      "latitude_deg": 4.7409056269373167e-05,
      "longitude_deg": 126.49813131458977,
      "height_km": 475.86049438879843,
      "semi_major_axis_km": 6853.386687232068,
      "eccentricity": 0.00018861,
      "inclination_deg": 53.1618,
      "raan_deg": 74.1219,
      "arg_perigee_deg": 77.1875,
      "mean_anomaly_deg": 282.9337,
      "mean_motion_rev_day": 15.30188406
    },
    {
      "epoch": "2026-04-07T21:34:34.346496Z",
      "apogee_km": 476.41797562546435,
      "perigee_km": 473.99326300674966,
      "latitude_deg": -4.1411835890969933e-07,
      "longitude_deg": -88.42130272501528,
      "height_km": 475.62675865927145,
      "semi_major_axis_km": 6853.342619316107,
      "eccentricity": 0.0001769,
      "inclination_deg": 53.1615,
      "raan_deg": 71.3911,
      "arg_perigee_deg": 66.8508,
      "mean_anomaly_deg": 293.2679,
      "mean_motion_rev_day": 15.30203165
    },
    {
      "epoch": "2026-04-08T14:49:12.018144Z",
      "apogee_km": 476.30563734325915,
      "perigee_km": 474.26770328065595,
      "latitude_deg": -8.382713225465489e-07,
      "longitude_deg": 8.878951949311919,
      "height_km": 476.15565702663736,
      "semi_major_axis_km": 6853.423670311958,
      "eccentricity": 0.00014868,
      "inclination_deg": 53.1601,
      "raan_deg": 68.0565,
      "arg_perigee_deg": 88.3809,
      "mean_anomaly_deg": 271.7362,
      "mean_motion_rev_day": 15.3017602
    },
    {
      "epoch": "2026-04-09T14:19:58.863648Z",
      "apogee_km": 476.1272863759277,
      "perigee_km": 474.2289180926091,
      "latitude_deg": -8.279720486213911e-06,
      "longitude_deg": 10.666708770471773,
      "height_km": 476.5204518380248,
      "semi_major_axis_km": 6853.315102234268,
      "eccentricity": 0.0001385,
      "inclination_deg": 53.1602,
      "raan_deg": 63.5051,
      "arg_perigee_deg": 117.9028,
      "mean_anomaly_deg": 242.2113,
      "mean_motion_rev_day": 15.30212381
    },
    {
      "epoch": "2026-04-10T04:26:28.961088Z",
      "apogee_km": 476.70231582534234,
      "perigee_km": 474.0674108097719,
      "latitude_deg": -1.649432858501794e-05,
      "longitude_deg": 155.73008526425,
      "height_km": 476.075575920583,
      "semi_major_axis_km": 6853.521863317557,
      "eccentricity": 0.00019223,
      "inclination_deg": 53.1607,
      "raan_deg": 60.7733,
      "arg_perigee_deg": 80.9807,
      "mean_anomaly_deg": 279.1411,
      "mean_motion_rev_day": 15.30143135
    },
    {
      "epoch": "2026-04-11T21:11:51.249120Z",
      "apogee_km": 476.2975499145514,
      "perigee_km": 474.1510771511539,
      "latitude_deg": 2.9949823312995244e-05,
      "longitude_deg": -105.17524754583772,
      "height_km": 476.03990242200354,
      "semi_major_axis_km": 6853.361313532852,
      "eccentricity": 0.0001566,
      "inclination_deg": 53.1605,
      "raan_deg": 52.8846,
      "arg_perigee_deg": 85.6111,
      "mean_anomaly_deg": 274.5069,
      "mean_motion_rev_day": 15.30196904
    },
    {
      "epoch": "2026-04-13T06:06:58.245120Z",
      "apogee_km": 476.2572357405961,
      "perigee_km": 474.19272897703013,
      "latitude_deg": -4.996369848676727e-05,
      "longitude_deg": 113.32302310054399,
      "height_km": 476.0312824584225,
      "semi_major_axis_km": 6853.361982358812,
      "eccentricity": 0.00015062,
      "inclination_deg": 53.1606,
      "raan_deg": 46.514,
      "arg_perigee_deg": 84.913,
      "mean_anomaly_deg": 275.2042,
      "mean_motion_rev_day": 15.3019668
    }
  ]
}